{"type": "FeatureCollection", "features": [ {"type": "Feature", "properties": {"norad_id": 35432, "name": "COSMOS 2251 DEB", "group": "cosmos-2251-debris", "lat": -65.29833045790826, "lon": -150.36068911812416, "alt_km": 496.38804374803476, "timestamp": "2025-12-24T07:45:06.594895+00:00", "meta": {"OBJECT_NAME": "COSMOS 2251 DEB", "OBJECT_ID": "1993-036AKA", "EPOCH": "2025-12-23T10:10:40.999296", "MEAN_MOTION": 15.24370162, "ECCENTRICITY": 0.00123944, "INCLINATION": 74.0193, "RA_OF_ASC_NODE": 353, "ARG_OF_PERICENTER": 323.4715, "MEAN_ANOMALY": 36.5638, "EPHEMERIS_TYPE": 0, "CLASSIFICATION_TYPE": "U", "NORAD_CAT_ID": 35432, "ELEMENT_SET_NO": 999, "REV_AT_EPOCH": 87666, "BSTAR": 0.0022162565, "MEAN_MOTION_DOT": 0.00054775, "MEAN_MOTION_DDOT": 0}, "tle": {"line1": "1 35432U 93036AKA 25357.42408564  .00054775  00000+0  22163-2 0  9996", "line2": "2 35432  74.0193 353.0000 0012394 323.4715  36.5638 15.24370162876663"}}, "geometry": {"type": "Point", "coordinates": [-150.36068911812416, -65.29833045790826]}}, {"type": "Feature", "properties": {"norad_id": 35433, "name": "COSMOS 2251 DEB", "group": "cosmos-2251-debris", "lat": -40.25738301188195, "lon": -56.798726464876175, "alt_km": 770.6359346684694, "timestamp": "2025-12-24T07:45:06.594906+00:00", "meta": {"OBJECT_NAME": "COSMOS 2251 DEB", "OBJECT_ID": "1993-036AKB", "EPOCH": "2025-12-10T18:27:52.031808", "MEAN_MOTION": 14.34742553, "ECCENTRICITY": 0.00254013, "INCLINATION": 74.0339, "RA_OF_ASC_NODE": 342.0559, "ARG_OF_PERICENTER": 37.4572, "MEAN_ANOMALY": 142.4072, "EPHEMERIS_TYPE": 0, "CLASSIFICATION_TYPE": "U", "NORAD_CAT_ID": 35433, "ELEMENT_SET_NO": 999, "REV_AT_EPOCH": 86552, "BSTAR": 0.00041847558, "MEAN_MOTION_DOT": 1.164e-05, "MEAN_MOTION_DDOT": 0}, "tle": {"line1": "1 35433U 93036AKB 25344.76935222  .00001164  00000+0  41848-3 0  9992", "line2": "2 35433  74.0339 342.0559 0025401  37.4572 142.4072 14.34742553865528"}}, "geometry": {"type": "Point", "coordinates": [-56.798726464876175, -40.25738301188195]}}, {"type": "Feature", "properties": {"norad_id": 35434, "name": "COSMOS 2251 DEB", "group": "cosmos-2251-debris", "lat": -33.578932065617956, "lon": 23.671134613958174, "alt_km": 768.0183938306036, "timestamp": "2025-12-24T07:45:06.594916+00:00", "meta": {"OBJECT_NAME": "COSMOS 2251 DEB", "OBJECT_ID": "1993-036AKC", "EPOCH": "2025-12-23T05:28:40.876896", "MEAN_MOTION": 14.25716012, "ECCENTRICITY": 0.00872798, "INCLINATION": 74.0389, "RA_OF_ASC_NODE": 194.6941, "ARG_OF_PERICENTER": 263.2384, "MEAN_ANOMALY": 95.8825, "EPHEMERIS_TYPE": 0, "CLASSIFICATION_TYPE": "U", "NORAD_CAT_ID": 35434, "ELEMENT_SET_NO": 999, "REV_AT_EPOCH": 86267, "BSTAR": 0.00051853095, "MEAN_MOTION_DOT": 1.255e-05, "MEAN_MOTION_DDOT": 0}, "tle": {"line1": "1 35434U 93036AKC 25357.22825089  .00001255  00000+0  51853-3 0  9995", "line2": "2 35434  74.0389 194.6941 0087279 263.2384  95.8825 14.25716012862672"}}, "geometry": {"type": "Point", "coordinates": [23.671134613958174, -33.578932065617956]}}, {"type": "Feature", "properties": {"norad_id": 35435, "name": "COSMOS 2251 DEB", "group": "cosmos-2251-debris", "lat": 73.53100991913874, "lon": -174.6408153581946, "alt_km": 625.1798340620862, "timestamp": "2025-12-24T07:45:06.594926+00:00", "meta": {"OBJECT_NAME": "COSMOS 2251 DEB", "OBJECT_ID": "1993-036AKD", "EPOCH": "2025-12-21T23:02:18.053952", "MEAN_MOTION": 14.78725447, "ECCENTRICITY": 0.0007022, "INCLINATION": 74.0111, "RA_OF_ASC_NODE": 85.9177, "ARG_OF_PERICENTER": 183.0187, "MEAN_ANOMALY": 296.3821, "EPHEMERIS_TYPE": 0, "CLASSIFICATION_TYPE": "U", "NORAD_CAT_ID": 35435, "ELEMENT_SET_NO": 999, "REV_AT_EPOCH": 87675, "BSTAR": 0.0022341039, "MEAN_MOTION_DOT": 0.00016414, "MEAN_MOTION_DDOT": 0}, "tle": {"line1": "1 35435U 93036AKD 25355.95993118  .00016414  00000+0  22341-2 0  9995", "line2": "2 35435  74.0111  85.9177 0007022 183.0187 296.3821 14.78725447876755"}}, "geometry": {"type": "Point", "coordinates": [-174.6408153581946, 73.53100991913874]}}, {"type": "Feature", "properties": {"norad_id": 35439, "name": "COSMOS 2251 DEB", "group": "cosmos-2251-debris", "lat": 47.79419053192614, "lon": 133.31161910922634, "alt_km": 1022.3622947026579, "timestamp": "2025-12-24T07:45:06.594937+00:00", "meta": {"OBJECT_NAME": "COSMOS 2251 DEB", "OBJECT_ID": "1993-036AKH", "EPOCH": "2025-12-23T01:03:41.280192", "MEAN_MOTION": 13.9285581, "ECCENTRICITY": 0.02428241, "INCLINATION": 74.0195, "RA_OF_ASC_NODE": 117.083, "ARG_OF_PERICENTER": 284.1415, "MEAN_ANOMALY": 194.5054, "EPHEMERIS_TYPE": 0, "CLASSIFICATION_TYPE": "U", "NORAD_CAT_ID": 35439, "ELEMENT_SET_NO": 999, "REV_AT_EPOCH": 84104, "BSTAR": 0.0017241175, "MEAN_MOTION_DOT": 2.822e-05, "MEAN_MOTION_DDOT": 0}, "tle": {"line1": "1 35439U 93036AKH 25357.04422778  .00002822  00000+0  17241-2 0  9991", "line2": "2 35439  74.0195 117.0830 0242824 284.1415 194.5054 13.92855810841046"}}, "geometry": {"type": "Point", "coordinates": [133.31161910922634, 47.79419053192614]}}, {"type": "Feature", "properties": {"norad_id": 35440, "name": "COSMOS 2251 DEB", "group": "cosmos-2251-debris", "lat": 44.23543689975151, "lon": -158.61127627816626, "alt_km": 654.4739230169926, "timestamp": "2025-12-24T07:45:06.594947+00:00", "meta": {"OBJECT_NAME": "COSMOS 2251 DEB", "OBJECT_ID": "1993-036AKJ", "EPOCH": "2025-12-22T19:34:52.667040", "MEAN_MOTION": 14.68858524, "ECCENTRICITY": 0.00697181, "INCLINATION": 74.0136, "RA_OF_ASC_NODE": 188.1002, "ARG_OF_PERICENTER": 326.674, "MEAN_ANOMALY": 33.0049, "EPHEMERIS_TYPE": 0, "CLASSIFICATION_TYPE": "U", "NORAD_CAT_ID": 35440, "ELEMENT_SET_NO": 999, "REV_AT_EPOCH": 68913, "BSTAR": 0.00037964995, "MEAN_MOTION_DOT": 2.268e-05, "MEAN_MOTION_DDOT": 0}, "tle": {"line1": "1 35440U 93036AKJ 25356.81588735  .00002268  00000+0  37965-3 0  9993", "line2": "2 35440  74.0136 188.1002 0069718 326.6740  33.0049 14.68858524689135"}}, "geometry": {"type": "Point", "coordinates": [-158.61127627816626, 44.23543689975151]}}, {"type": "Feature", "properties": {"norad_id": 35441, "name": "COSMOS 2251 DEB", "group": "cosmos-2251-debris", "lat": 70.11225528679896, "lon": 44.21122382148316, "alt_km": 666.8887550062327, "timestamp": "2025-12-24T07:45:06.594957+00:00", "meta": {"OBJECT_NAME": "COSMOS 2251 DEB", "OBJECT_ID": "1993-036AKK", "EPOCH": "2025-12-23T01:44:22.571808", "MEAN_MOTION": 14.62737504, "ECCENTRICITY": 0.003608, "INCLINATION": 74.135, "RA_OF_ASC_NODE": 278.4179, "ARG_OF_PERICENTER": 171.2985, "MEAN_ANOMALY": 188.8816, "EPHEMERIS_TYPE": 0, "CLASSIFICATION_TYPE": "U", "NORAD_CAT_ID": 35441, "ELEMENT_SET_NO": 999, "REV_AT_EPOCH": 87581, "BSTAR": 0.001573097, "MEAN_MOTION_DOT": 8.072e-05, "MEAN_MOTION_DDOT": 0}, "tle": {"line1": "1 35441U 93036AKK 25357.07248347  .00008072  00000+0  15731-2 0  9990", "line2": "2 35441  74.1350 278.4179 0036080 171.2985 188.8816 14.62737504875815"}}, "geometry": {"type": "Point", "coordinates": [44.21122382148316, 70.11225528679896]}}, {"type": "Feature", "properties": {"norad_id": 35442, "name": "COSMOS 2251 DEB", "group": "cosmos-2251-debris", "lat": 0.002461757906696378, "lon": -103.85815135897235, "alt_km": 618.848900247529, "timestamp": "2025-12-24T07:45:06.594967+00:00", "meta": {"OBJECT_NAME": "COSMOS 2251 DEB", "OBJECT_ID": "1993-036AKL", "EPOCH": "2025-12-23T11:32:24.012672", "MEAN_MOTION": 14.8478997, "ECCENTRICITY": 0.000395, "INCLINATION": 74.0271, "RA_OF_ASC_NODE": 77.8141, "ARG_OF_PERICENTER": 44.74, "MEAN_ANOMALY": 315.4097, "EPHEMERIS_TYPE": 0, "CLASSIFICATION_TYPE": "U", "NORAD_CAT_ID": 35442, "ELEMENT_SET_NO": 999, "REV_AT_EPOCH": 87512, "BSTAR": 0.0019664343, "MEAN_MOTION_DOT": 0.00016699, "MEAN_MOTION_DDOT": 0}, "tle": {"line1": "1 35442U 93036AKL 25357.48083348  .00016699  00000+0  19664-2 0  9997", "line2": "2 35442  74.0271  77.8141 0003950  44.7400 315.4097 14.84789970875124"}}, "geometry": {"type": "Point", "coordinates": [-103.85815135897235, 0.002461757906696378]}}, {"type": "Feature", "properties": {"norad_id": 35443, "name": "COSMOS 2251 DEB", "group": "cosmos-2251-debris", "lat": 13.41602383432012, "lon": -47.988490396886526, "alt_km": 559.6224825489717, "timestamp": "2025-12-24T07:45:06.594977+00:00", "meta": {"OBJECT_NAME": "COSMOS 2251 DEB", "OBJECT_ID": "1993-036AKM", "EPOCH": "2025-12-22T07:35:27.878496", "MEAN_MOTION": 14.97448955, "ECCENTRICITY": 0.00729664, "INCLINATION": 73.9898, "RA_OF_ASC_NODE": 312.1571, "ARG_OF_PERICENTER": 91.4914, "MEAN_ANOMALY": 269.4631, "EPHEMERIS_TYPE": 0, "CLASSIFICATION_TYPE": "U", "NORAD_CAT_ID": 35443, "ELEMENT_SET_NO": 999, "REV_AT_EPOCH": 87021, "BSTAR": 0.0042887537, "MEAN_MOTION_DOT": 0.00053082, "MEAN_MOTION_DDOT": 0}, "tle": {"line1": "1 35443U 93036AKM 25356.31629489  .00053082  00000+0  42888-2 0  9992", "line2": "2 35443  73.9898 312.1571 0072966  91.4914 269.4631 14.97448955870218"}}, "geometry": {"type": "Point", "coordinates": [-47.988490396886526, 13.41602383432012]}}, {"type": "Feature", "properties": {"norad_id": 35445, "name": "COSMOS 2251 DEB", "group": "cosmos-2251-debris", "lat": -73.93738154089098, "lon": -178.32312391173969, "alt_km": 707.4791512345009, "timestamp": "2025-12-24T07:45:06.594987+00:00", "meta": {"OBJECT_NAME": "COSMOS 2251 DEB", "OBJECT_ID": "1993-036AKP", "EPOCH": "2025-12-20T02:09:32.474016", "MEAN_MOTION": 14.59298517, "ECCENTRICITY": 0.0143911, "INCLINATION": 74.0379, "RA_OF_ASC_NODE": 285.9917, "ARG_OF_PERICENTER": 11.2111, "MEAN_ANOMALY": 349.2201, "EPHEMERIS_TYPE": 0, "CLASSIFICATION_TYPE": "U", "NORAD_CAT_ID": 35445, "ELEMENT_SET_NO": 999, "REV_AT_EPOCH": 87436, "BSTAR": 0.001392614, "MEAN_MOTION_DOT": 7.582e-05, "MEAN_MOTION_DDOT": 0}, "tle": {"line1": "1 35445U 93036AKP 25354.08995919  .00007582  00000+0  13926-2 0  9995", "line2": "2 35445  74.0379 285.9917 0143911  11.2111 349.2201 14.59298517874360"}}, "geometry": {"type": "Point", "coordinates": [-178.32312391173969, -73.93738154089098]}}]}